NORAD_CAT_ID,OBJECT_NAME,OBJECT_TYPE,EPOCH,MEAN_MOTION,ECCENTRICITY,INCLINATION,RA_OF_ASC_NODE,ARG_OF_PERICENTER,MEAN_ANOMALY,BSTAR,MEAN_MOTION_DOT,MEAN_MOTION_DDOT,TLE_LINE0,TLE_LINE1,TLE_LINE2,SEMIMAJOR_AXIS,PERIOD,APOGEE,PERIGEE,DECAYED
52872.0,STARLINK-4213,PAYLOAD,2023-10-27 09:37:19,15.0885644,0.0001721,53.2167,294.0335,95.7508,264.3681,0.00034903,5.274e-05,0.0,0 STARLINK-4213,1 52872U 22062AU  23300.40091940  .00005274  00000-0  34903-3 0  9991,2 52872  53.2167 294.0335 0001721  95.7508 264.3681 15.08856440 75587,6917.83,95.437,540.886,538.505,0.0
52872.0,STARLINK-4213,PAYLOAD,2023-10-28 09:28:07,15.08838182,0.0001742,53.2171,289.573,88.3281,271.7911,5.0307e-05,5.13e-06,0.0,0 STARLINK-4213,1 52872U 22062AU  23301.39452796  .00000513  00000-0  50307-4 0  9998,2 52872  53.2171 289.5730 0001742  88.3281 271.7911 15.08838182 76222,6917.886,95.438,540.956,538.546,0.0
52872.0,STARLINK-4213,PAYLOAD,2023-10-28 15:49:39,15.08836982,0.0001729,53.2171,288.3831,87.1193,272.9997,5.1544e-05,5.32e-06,0.0,0 STARLINK-4213,1 52872U 22062AU  23301.65948944  .00000532  00000-0  51544-4 0  9997,2 52872  53.2171 288.3831 0001729  87.1193 272.9997 15.08836982 75777,6917.89,95.438,540.951,538.559,0.0
52872.0,STARLINK-4213,PAYLOAD,2023-10-29 06:08:07,15.08855387,0.0001689,53.2169,285.7075,86.4164,273.7022,0.00058215,8.993e-05,0.0,0 STARLINK-4213,1 52872U 22062AU  23302.25564549  .00008993  00000-0  58215-3 0  9999,2 52872  53.2169 285.7075 0001689  86.4164 273.7022 15.08855387 76353,6917.833,95.437,540.867,538.53,0.0
52872.0,STARLINK-4213,PAYLOAD,2023-10-29 15:40:26,15.08841882,0.0001599,53.2166,283.9227,88.1819,271.9356,0.00042507,6.484e-05,0.0,0 STARLINK-4213,1 52872U 22062AU  23302.65308890  .00006484  00000-0  42507-3 0  9998,2 52872  53.2166 283.9227 0001599  88.1819 271.9356 15.08841882 76417,6917.875,95.437,540.846,538.633,0.0
52872.0,STARLINK-4213,PAYLOAD,2023-10-30 04:23:32,15.08838469,0.000184,53.2176,281.5479,97.8318,262.2883,9.8208e-05,1.275e-05,0.0,0 STARLINK-4213,1 52872U 22062AU  23303.18301159  .00001275  00000-0  98208-4 0  9991,2 52872  53.2176 281.5479 0001840  97.8318 262.2883 15.08838469 76494,6917.885,95.438,541.023,538.477,0.0
52872.0,STARLINK-4213,PAYLOAD,2023-10-30 15:31:14,15.0883977,0.0001667,53.2171,279.4616,85.5646,274.5537,8.9121e-05,1.131e-05,0.0,0 STARLINK-4213,1 52872U 22062AU  23303.64669040  .00001131  00000-0  89121-4 0  9993,2 52872  53.2171 279.4616 0001667  85.5646 274.5537 15.08839770 76075,6917.881,95.438,540.899,538.593,0.0
52872.0,STARLINK-4213,PAYLOAD,2023-10-31 04:14:19,15.08829309,0.0002142,53.2188,277.0859,92.0469,268.0769,-0.00010014,-1.881e-05,0.0,0 STARLINK-4213,1 52872U 22062AU  23304.17661899 -.00001881  00000-0 -10014-3 0  9994,2 52872  53.2188 277.0859 0002142  92.0469 268.0769 15.08829309 76646,6917.913,95.438,541.26,538.296,0.0
52872.0,STARLINK-4213,PAYLOAD,2023-10-31 05:49:42,15.08831337,0.0001874,53.2178,276.786,89.2818,270.8389,-4.9774e-05,-1.08e-05,0.0,0 STARLINK-4213,1 52872U 22062AU  23304.24285761 -.00001080  00000-0 -49774-4 0  9999,2 52872  53.2178 276.7860 0001874  89.2818 270.8389 15.08831337 76160,6917.907,95.438,541.068,538.475,0.0
52872.0,STARLINK-4213,PAYLOAD,2023-10-31 21:43:34,15.08840398,0.0001798,53.2178,273.8137,92.5994,267.5204,0.00027225,4.047e-05,0.0,0 STARLINK-4213,1 52872U 22062AU  23304.90525851  .00004047  00000-0  27225-3 0  9999,2 52872  53.2178 273.8137 0001798  92.5994 267.5204 15.08840398 76753,6917.879,95.438,540.988,538.5,0.0
52872.0,STARLINK-4213,PAYLOAD,2023-11-01 07:15:52,15.0885687,0.0001596,53.2166,272.0297,99.5438,260.5734,0.00084761,0.00013234,0.0,0 STARLINK-4213,1 52872U 22062AU  23305.30269439  .00013234  00000-0  84761-3 0  9997,2 52872  53.2166 272.0297 0001596  99.5438 260.5734 15.08856870 76814,6917.829,95.436,540.798,538.59,0.0
52872.0,STARLINK-4213,PAYLOAD,2023-11-01 15:12:48,15.08841129,0.0001882,53.217,270.543,90.6704,269.4503,0.00024238,3.572e-05,0.0,0 STARLINK-4213,1 52872U 22062AU  23305.63389917  .00003572  00000-0  24238-3 0  9994,2 52872  53.2170 270.5430 0001882  90.6704 269.4503 15.08841129 76865,6917.877,95.437,541.044,538.44,0.0
52872.0,STARLINK-4213,PAYLOAD,2023-11-02 03:55:53,15.08847891,0.0001648,53.2165,268.1639,89.3639,270.7542,0.00046554,7.13e-05,0.0,0 STARLINK-4213,1 52872U 22062AU  23306.16381710  .00007130  00000-0  46554-3 0  9995,2 52872  53.2165 268.1639 0001648  89.3639 270.7542 15.08847891 76450,6917.856,95.437,540.861,538.581,0.0
52872.0,STARLINK-4213,PAYLOAD,2023-11-02 15:03:35,15.08847028,0.0001594,53.2161,266.0824,88.1882,271.9293,0.00049854,7.657e-05,0.0,0 STARLINK-4213,1 52872U 22062AU  23306.62749680  .00007657  00000-0  49854-3 0  9990,2 52872  53.2161 266.0824 0001594  88.1882 271.9293 15.08847028 76522,6917.859,95.437,540.827,538.621,0.0
52872.0,STARLINK-4213,PAYLOAD,2023-11-03 03:46:40,15.08848298,0.0001828,53.2181,263.7013,103.9047,256.2149,0.00025428,3.762e-05,0.0,0 STARLINK-4213,1 52872U 22062AU  23307.15741532  .00003762  00000-0  25428-3 0  9991,2 52872  53.2181 263.7013 0001828 103.9047 256.2149 15.08848298 77096,6917.855,95.437,540.985,538.455,0.0
52872.0,STARLINK-4213,PAYLOAD,2023-11-03 06:57:26,15.08857258,0.0001785,53.2174,263.1063,99.3322,260.7872,0.00047908,7.348e-05,0.0,0 STARLINK-4213,1 52872U 22062AU  23307.28989306  .00007348  00000-0  47908-3 0  9999,2 52872  53.2174 263.1063 0001785  99.3322 260.7872 15.08857258 76620,6917.828,95.436,540.927,538.458,0.0
52872.0,STARLINK-4213,PAYLOAD,2023-11-04 06:48:12,15.08869229,0.000175,53.2178,258.645,101.2018,258.9171,0.00049506,7.606e-05,0.0,0 STARLINK-4213,1 52872U 22062AU  23308.28347816  .00007606  00000-0  49506-3 0  9997,2 52872  53.2178 258.6450 0001750 101.2018 258.9171 15.08869229 76778,6917.791,95.436,540.867,538.445,0.0
52872.0,STARLINK-4213,PAYLOAD,2023-11-05 03:28:13,15.08852298,0.0001713,53.2172,254.7778,125.3956,234.7196,0.00022818,3.347e-05,0.0,0 STARLINK-4213,1 52872U 22062AU  23309.14460423  .00003347  00000-0  22818-3 0  9998,2 52872  53.2172 254.7778 0001713 125.3956 234.7196 15.08852298 77395,6917.843,95.437,540.893,538.523,0.0
52872.0,STARLINK-4213,PAYLOAD,2023-11-05 13:00:32,15.08846452,0.0001557,53.2168,252.9987,111.8383,248.2775,0.00021796,3.183e-05,0.0,0 STARLINK-4213,1 52872U 22062AU  23309.54204577  .00003183  00000-0  21796-3 0  9990,2 52872  53.2168 252.9987 0001557 111.8383 248.2775 15.08846452 76962,6917.861,95.437,540.803,538.649,0.0
52872.0,STARLINK-4213,PAYLOAD,2023-11-06 01:43:36,15.0886815,0.0002056,53.2171,250.6188,128.8315,231.2861,0.0011645,0.00018308,0.0,0 STARLINK-4213,1 52872U 22062AU  23310.07195334  .00018308  00000-0  11645-2 0  9996,2 52872  53.2171 250.6188 0002056 128.8315 231.2861 15.08868150 77533,6917.794,95.436,541.082,538.237,0.0
52872.0,STARLINK-4213,PAYLOAD,2023-11-06 04:54:22,15.08888374,0.0001591,53.2169,250.0238,117.4203,242.6951,0.0018025,0.00028553,0.0,0 STARLINK-4213,1 52872U 22062AU  23310.20442959  .00028553  00000-0  18025-2 0  9991,2 52872  53.2169 250.0238 0001591 117.4203 242.6951 15.08888374 77551,6917.733,95.434,540.698,538.497,0.0
52872.0,STARLINK-4213,PAYLOAD,2023-11-06 12:51:19,15.0886333,0.0002824,53.217,248.5373,80.9102,279.221,0.0009363,0.00014654,0.0,0 STARLINK-4213,1 52872U 22062AU  23310.53563805  .00014654  00000-0  93630-3 0  9994,2 52872  53.2170 248.5373 0002824  80.9102 279.2210 15.08863330 77118,6917.809,95.436,541.628,537.72,0.0
52872.0,STARLINK-4213,PAYLOAD,2023-11-07 03:09:47,15.08813201,0.0001013,53.2166,245.8584,84.4849,275.6259,-0.00087428,-0.00014164,0.0,0 STARLINK-4213,1 52872U 22062AU  23311.13180493 -.00014164  00000-0 -87428-3 0  9995,2 52872  53.2166 245.8584 0001013  84.4849 275.6259 15.08813201 77691,6917.962,95.439,540.528,539.127,0.0
52872.0,STARLINK-4213,PAYLOAD,2023-11-07 12:42:07,15.08813018,0.0001245,53.2163,244.0777,89.7619,270.3515,-0.00040494,-6.722e-05,0.0,0 STARLINK-4213,1 52872U 22062AU  23311.52925422 -.00006722  00000-0 -40494-3 0  9990,2 52872  53.2163 244.0777 0001245  89.7619 270.3515 15.08813018 77269,6917.963,95.439,540.689,538.967,0.0
52872.0,STARLINK-4213,PAYLOAD,2023-11-08 03:00:36,15.08838169,0.0001227,53.2167,241.401,83.2239,276.8893,0.0013032,0.00020512,0.0,0 STARLINK-4213,1 52872U 22062AU  23312.12542158  .00020512  00000-0  13032-2 0  9996,2 52872  53.2167 241.4010 0001227  83.2239 276.8893 15.08838169 77849,6917.886,95.438,540.6,538.902,0.0
52872.0,STARLINK-4213,PAYLOAD,2023-11-08 04:35:59,15.08841315,0.0001196,53.2165,241.1036,88.3513,271.7616,0.0012687,0.00019962,0.0,0 STARLINK-4213,1 52872U 22062AU  23312.19166088  .00019962  00000-0  12687-2 0  9999,2 52872  53.2165 241.1036 0001196  88.3513 271.7616 15.08841315 77369,6917.876,95.437,540.569,538.914,0.0
52872.0,STARLINK-4213,PAYLOAD,2023-11-09 02:51:23,15.08853133,0.000104,53.2159,236.9417,79.9505,280.1605,0.00072154,0.00011218,0.0,0 STARLINK-4213,1 52872U 22062AU  23313.11901967  .00011218  00000-0  72154-3 0  9997,2 52872  53.2159 236.9417 0001040  79.9505 280.1605 15.08853133 77994,6917.84,95.437,540.425,538.986,0.0
52872.0,STARLINK-4213,PAYLOAD,2023-11-10 01:06:47,15.08835422,0.0001521,53.2177,232.7776,98.4936,261.6228,0.00024447,3.604e-05,0.0,0 STARLINK-4213,1 52872U 22062AU  23314.04638789  .00003604  00000-0  24447-3 0  9991,2 52872  53.2177 232.7776 0001521  98.4936 261.6228 15.08835422 78137,6917.894,95.438,540.812,538.707,0.0
52872.0,STARLINK-4213,PAYLOAD,2023-11-10 04:17:34,15.0884052,0.0001351,53.2166,232.1825,93.8632,266.2515,0.00051109,7.856e-05,0.0,0 STARLINK-4213,1 52872U 22062AU  23314.17886774  .00007856  00000-0  51109-3 0  9992,2 52872  53.2166 232.1825 0001351  93.8632 266.2515 15.08840520 77669,6917.879,95.438,540.678,538.809,0.0
52872.0,STARLINK-4213,PAYLOAD,2023-11-10 21:46:48,15.08858885,0.0001494,53.2172,228.9114,97.0484,263.0678,0.00071053,0.00011044,0.0,0 STARLINK-4213,1 52872U 22062AU  23314.90750252  .00011044  00000-0  71053-3 0  9998,2 52872  53.2172 228.9114 0001494  97.0484 263.0678 15.08858885 77779,6917.823,95.436,540.721,538.654,0.0
